NORAD_CAT_ID,OBJECT_NAME,OBJECT_TYPE,EPOCH,MEAN_MOTION,ECCENTRICITY,INCLINATION,RA_OF_ASC_NODE,ARG_OF_PERICENTER,MEAN_ANOMALY,BSTAR,MEAN_MOTION_DOT,MEAN_MOTION_DDOT,TLE_LINE0,TLE_LINE1,TLE_LINE2,SEMIMAJOR_AXIS,PERIOD,APOGEE,PERIGEE,DECAYED
53596.0,STARLINK-4668,PAYLOAD,2024-03-20 09:58:51,15.12041314,0.0001928,53.2139,232.0413,200.5205,159.5711,0.0012024,0.00020669,0.0,0 STARLINK-4668,1 53596U 22104J   24080.41587955  .00020669  00000-0  12024-2 0  9999,2 53596  53.2139 232.0413 0001928 200.5205 159.5711 15.12041314 87042,6908.113,95.235,531.309,528.646,0.0
53596.0,STARLINK-4668,PAYLOAD,2024-03-20 16:19:35,15.12055346,0.0001847,53.214,230.8497,202.3876,157.7038,0.001358,0.000234,0.0,0 STARLINK-4668,1 53596U 22104J   24080.68027608  .00023400  00000-0  13580-2 0  9996,2 53596  53.2140 230.8497 0001847 202.3876 157.7038 15.12055346 87082,6908.07,95.235,531.211,528.659,0.0
53596.0,STARLINK-4668,PAYLOAD,2024-03-21 12:56:57,15.1210184,0.0001754,53.2145,226.9723,207.1971,152.8931,0.0015922,0.00027539,0.0,0 STARLINK-4668,1 53596U 22104J   24081.53954886  .00027539  00000-0  15922-2 0  9997,2 53596  53.2145 226.9723 0001754 207.1971 152.8931 15.12101840 86528,6907.928,95.232,531.005,528.582,0.0
53596.0,STARLINK-4668,PAYLOAD,2024-03-21 14:32:07,15.12106151,0.0001643,53.2145,226.6742,207.8006,152.2899,0.0016461,0.00028488,0.0,0 STARLINK-4668,1 53596U 22104J   24081.60564580  .00028488  00000-0  16461-2 0  9996,2 53596  53.2145 226.6742 0001643 207.8006 152.2899 15.12106151 87224,6907.915,95.231,530.915,528.645,0.0
53596.0,STARLINK-4668,PAYLOAD,2024-03-21 19:17:39,15.1212744,0.0001643,53.2147,225.7786,209.2982,150.792,0.0021557,0.00037469,0.0,0 STARLINK-4668,1 53596U 22104J   24081.80393357  .00037469  00000-0  21557-2 0  9991,2 53596  53.2147 225.7786 0001643 209.2982 150.7920 15.12127440 87258,6907.85,95.23,530.85,528.58,0.0
53596.0,STARLINK-4668,PAYLOAD,2024-03-22 12:44:36,15.12166981,0.0001639,53.215,222.4962,209.4197,150.6704,0.0014868,0.00025736,0.0,0 STARLINK-4668,1 53596U 22104J   24082.53097767  .00025736  00000-0  14868-2 0  9999,2 53596  53.2150 222.4962 0001639 209.4197 150.6704 15.12166981 86674,6907.73,95.228,530.727,528.463,0.0
53596.0,STARLINK-4668,PAYLOAD,2024-03-22 14:19:46,15.12171103,0.0001617,53.2152,222.1981,209.3731,150.7172,0.0014923,0.00025836,0.0,0 STARLINK-4668,1 53596U 22104J   24082.59707153  .00025836  00000-0  14923-2 0  9995,2 53596  53.2152 222.1981 0001617 209.3731 150.7172 15.12171103 87373,6907.717,95.227,530.699,528.465,0.0
53596.0,STARLINK-4668,PAYLOAD,2024-03-22 19:05:18,15.1218469,0.0001583,53.2155,221.3031,210.6876,149.4025,0.0015347,0.00026591,0.0,0 STARLINK-4668,1 53596U 22104J   24082.79535176  .00026591  00000-0  15347-2 0  9991,2 53596  53.2155 221.3031 0001583 210.6876 149.4025 15.12184690 87401,6907.676,95.226,530.634,528.447,0.0
53596.0,STARLINK-4668,PAYLOAD,2024-03-23 12:32:11,15.12246997,0.000151,53.2159,218.0217,215.864,144.2252,0.0021767,0.00037966,0.0,0 STARLINK-4668,1 53596U 22104J   24083.52236102  .00037966  00000-0  21767-2 0  9991,2 53596  53.2159 218.0217 0001510 215.8640 144.2252 15.12246997 86829,6907.486,95.223,530.394,528.308,0.0
53596.0,STARLINK-4668,PAYLOAD,2024-03-23 18:52:52,15.12266396,0.0001447,53.2162,216.8289,218.6655,141.4235,0.0021373,0.00037291,0.0,0 STARLINK-4668,1 53596U 22104J   24083.78672169  .00037291  00000-0  21373-2 0  9990,2 53596  53.2162 216.8289 0001447 218.6655 141.4235 15.12266396 87550,6907.427,95.221,530.292,528.293,0.0
53596.0,STARLINK-4668,PAYLOAD,2024-03-24 12:19:42,15.12336134,0.0001364,53.2165,213.5503,229.7211,130.3663,0.0025136,0.00044036,0.0,0 STARLINK-4668,1 53596U 22104J   24084.51369017  .00044036  00000-0  25136-2 0  9993,2 53596  53.2165 213.5503 0001364 229.7211 130.3663 15.12336134 86970,6907.215,95.217,530.022,528.138,0.0
53596.0,STARLINK-4668,PAYLOAD,2024-03-24 13:54:52,15.12345783,0.000128,53.2162,213.2506,232.0958,127.992,0.0027542,0.00048322,0.0,0 STARLINK-4668,1 53596U 22104J   24084.57977653  .00048322  00000-0  27542-2 0  9995,2 53596  53.2162 213.2506 0001280 232.0958 127.9920 15.12345783 87675,6907.185,95.216,529.934,528.166,0.0
53596.0,STARLINK-4668,PAYLOAD,2024-03-25 01:01:00,15.12428033,0.0001169,53.216,211.1618,249.0872,110.9997,0.005376,0.00095451,0.0,0 STARLINK-4668,1 53596U 22104J   24085.04237176  .00095451  00000-0  53760-2 0  9993,2 53596  53.2160 211.1618 0001169 249.0872 110.9997 15.12428033 87051,6906.935,95.211,529.607,527.992,0.0
53596.0,STARLINK-4668,PAYLOAD,2024-03-25 12:07:08,15.12443756,0.0001256,53.2162,209.0748,237.9344,122.1528,0.0030624,0.00053953,0.0,0 STARLINK-4668,1 53596U 22104J   24085.50495409  .00053953  00000-0  30624-2 0  9994,2 53596  53.2162 209.0748 0001256 237.9344 122.1528 15.12443756 87122,6906.887,95.21,529.62,527.885,0.0
53596.0,STARLINK-4668,PAYLOAD,2024-03-25 15:17:26,15.12459198,0.0001218,53.2163,208.4787,242.2369,117.8501,0.0031983,0.00056404,0.0,0 STARLINK-4668,1 53596U 22104J   24085.63711767  .00056404  00000-0  31983-2 0  9999,2 53596  53.2163 208.4787 0001218 242.2369 117.8501 15.12459198 87830,6906.84,95.209,529.546,527.864,0.0
53596.0,STARLINK-4668,PAYLOAD,2024-03-26 13:29:37,15.12511935,0.0001189,53.2162,204.3029,248.9528,111.1338,0.0018131,0.00031782,0.0,0 STARLINK-4668,1 53596U 22104J   24086.56224166  .00031782  00000-0  18131-2 0  9996,2 53596  53.2162 204.3029 0001189 248.9528 111.1338 15.12511935 87282,6906.679,95.206,529.366,527.723,0.0
53596.0,STARLINK-4668,PAYLOAD,2024-03-26 15:04:46,15.12518132,0.0001206,53.2161,204.005,249.2617,110.8248,0.0019099,0.00033509,0.0,0 STARLINK-4668,1 53596U 22104J   24086.62832041  .00033509  00000-0  19099-2 0  9993,2 53596  53.2161 204.0050 0001206 249.2617 110.8248 15.12518132 87984,6906.661,95.205,529.359,527.693,0.0
53596.0,STARLINK-4668,PAYLOAD,2024-03-26 16:39:56,15.12524172,0.000116,53.2161,203.7064,253.6282,106.4584,0.0020143,0.00035372,0.0,0 STARLINK-4668,1 53596U 22104J   24086.69439906  .00035372  00000-0  20143-2 0  9995,2 53596  53.2161 203.7064 0001160 253.6282 106.4584 15.12524172 87997,6906.642,95.205,529.308,527.706,0.0
53596.0,STARLINK-4668,PAYLOAD,2024-03-27 14:52:02,15.12583058,0.0001208,53.2149,199.5292,263.4313,96.6543,0.0016811,0.00029496,0.0,0 STARLINK-4668,1 53596U 22104J   24087.61947790  .00029496  00000-0  16811-2 0  9990,2 53596  53.2149 199.5292 0001208 263.4313  96.6543 15.12583058 88135,6906.463,95.201,529.162,527.494,0.0
53596.0,STARLINK-4668,PAYLOAD,2024-03-27 16:27:11,15.12587646,0.0001196,53.2149,199.231,263.8659,96.2199,0.001696,0.00029765,0.0,0 STARLINK-4668,1 53596U 22104J   24087.68555360  .00029765  00000-0  16960-2 0  9999,2 53596  53.2149 199.2310 0001196 263.8659  96.2199 15.12587646 87450,6906.449,95.201,529.14,527.488,0.0
53596.0,STARLINK-4668,PAYLOAD,2024-03-28 13:04:06,15.12647282,0.0001195,53.2144,195.3523,270.2264,89.8593,0.001757,0.00030903,0.0,0 STARLINK-4668,1 53596U 22104J   24088.54451830  .00030903  00000-0  17570-2 0  9996,2 53596  53.2144 195.3523 0001195 270.2264  89.8593 15.12647282 88271,6906.267,95.197,528.958,527.307,0.0
53596.0,STARLINK-4668,PAYLOAD,2024-03-29 12:51:15,15.12713384,0.0001203,53.2138,190.877,282.0798,78.0061,0.0017899,0.00031549,0.0,0 STARLINK-4668,1 53596U 22104J   24089.53559178  .00031549  00000-0  17899-2 0  9991,2 53596  53.2138 190.8770 0001203 282.0798  78.0061 15.12713384 88425,6906.066,95.193,528.762,527.1,0.0
53596.0,STARLINK-4668,PAYLOAD,2024-03-29 16:01:32,15.12722681,0.0001182,53.214,190.2806,285.0122,75.0741,0.0018693,0.00032977,0.0,0 STARLINK-4668,1 53596U 22104J   24089.66773198  .00032977  00000-0  18693-2 0  9994,2 53596  53.2140 190.2806 0001182 285.0122  75.0741 15.12722681 87759,6906.038,95.193,528.719,527.087,0.0
53596.0,STARLINK-4668,PAYLOAD,2024-03-30 12:38:20,15.12774321,0.0001196,53.2144,186.4018,295.5356,64.5514,0.0016016,0.00028234,0.0,0 STARLINK-4668,1 53596U 22104J   24090.52662343  .00028234  00000-0  16016-2 0  9998,2 53596  53.2144 186.4018 0001196 295.5356  64.5514 15.12774321 88575,6905.881,95.189,528.572,526.92,0.0
53596.0,STARLINK-4668,PAYLOAD,2024-03-30 23:44:17,15.12803462,0.0001326,53.2141,184.313,303.1912,56.8955,0.001839,0.00032509,0.0,0 STARLINK-4668,1 53596U 22104J   24090.98909226  .00032509  00000-0  18390-2 0  9999,2 53596  53.2141 184.3130 0001326 303.1912  56.8955 15.12803462 87956,6905.792,95.188,528.573,526.741,0.0
53596.0,STARLINK-4668,PAYLOAD,2024-03-31 12:25:22,15.1283375,0.0001357,53.2142,181.9257,308.8354,51.2518,0.0017058,0.00030149,0.0,0 STARLINK-4668,1 53596U 22104J   24091.51761703  .00030149  00000-0  17058-2 0  9993,2 53596  53.2142 181.9257 0001357 308.8354  51.2518 15.12833750 88729,6905.7,95.186,528.502,526.628,0.0
53596.0,STARLINK-4668,PAYLOAD,2024-04-01 12:12:20,15.12889348,0.0001496,53.2146,177.4497,319.6203,40.468,0.0015835,0.00028001,0.0,0 STARLINK-4668,1 53596U 22104J   24092.50857273  .00028001  00000-0  15835-2 0  9996,2 53596  53.2146 177.4497 0001496 319.6203  40.4680 15.12889348 88180,6905.531,95.182,528.429,526.363,0.0
53596.0,STARLINK-4668,PAYLOAD,2024-04-02 11:59:16,15.12934178,0.0001592,53.2151,172.9731,326.5599,33.5294,0.0012171,0.0002146,0.0,0 STARLINK-4668,1 53596U 22104J   24093.49949503  .00021460  00000-0  12171-2 0  9995,2 53596  53.2151 172.9731 0001592 326.5599  33.5294 15.12934178 89029,6905.394,95.179,528.359,526.16,0.0
53596.0,STARLINK-4668,PAYLOAD,2024-04-03 11:46:09,15.12971302,0.0001669,53.2157,168.4963,331.2813,28.8089,0.001033,0.00018179,0.0,0 STARLINK-4668,1 53596U 22104J   24094.49039069  .00018179  00000-0  10330-2 0  9991,2 53596  53.2157 168.4963 0001669 331.2813  28.8089 15.12971302 89174,6905.281,95.177,528.299,525.994,0.0
53596.0,STARLINK-4668,PAYLOAD,2024-04-03 14:56:24,15.1297461,0.0001722,53.2156,167.8993,331.3456,28.7443,0.00097363,0.00017116,0.0,0 STARLINK-4668,1 53596U 22104J   24094.62250860  .00017116  00000-0  97363-3 0  9992,2 53596  53.2156 167.8993 0001722 331.3456  28.7443 15.12974610 88507,6905.271,95.177,528.325,525.947,0.0
